ATS 1                   
1 02608U 66110A   11355.70570601 -.00000114  00000-0  10000-3 0  2737
2 02608   6.3657 306.5777 0005430 188.8714 193.3213  1.00314987 81711
ATS 3                   
1 03029U 67111A   12014.84564290 -.00000090  00000-0  10000-3 0  9103
2 03029   8.0408 312.7184 0017414  71.7890 288.5188  1.00272350161829
ORIZURU (DEBUT)         
1 20479U 90013B   12014.24600638 -.00000032  00000-0  12790-5 0  1185
2 20479  99.0599 134.9623 0539497 192.1827 166.5773 12.83721580 27786
SURFSAT                 
1 23711U 95059B   12014.46921196  .00000083  00000-0  24543-3 0  9923
2 23711 100.3593   6.5234 0368478 132.6620 230.6178 13.12598227775920
MAQSAT H                
1 25023U 97066A   12002.53236226 -.00000052  00000-0 -24103-8 0   644
2 25023   7.7255  51.6595 6498982 100.3847 333.5405  3.09566513160143
MAQSAT B                
1 25024U 97066B   12013.21559144 -.00000026  00000-0  10374-3 0   919
2 25024   7.7846  42.8345 6513579 117.0368 322.0216  3.08775827160308
TEAMSAT                 
1 25025U 97066C   12014.64793389 -.00000169  00000-0 -70899-3 0   826
2 25025   7.7393  59.6748 6521033  84.2941 341.3029  3.07916427159895
OPAL (OO-38)            
1 26063U 00004C   12015.01337097  .00000080  00000-0  47359-4 0  2948
2 26063 100.2138 348.3605 0037033 128.7815 231.6678 14.36039510627113
FALCONSAT               
1 26064U 00004D   12014.86261680  .00000185  00000-0  84028-4 0  2563
2 26064 100.2140 345.5689 0038473 138.1066 222.3070 14.35572989626911
PICOSAT 1 & 2 [TETHERED]
1 26080U 00004H   12013.99228326  .00000485  00000-0  16902-3 0  7691
2 26080 100.2256  19.1468 0032593  61.8620 298.5846 14.40869613626938
PICOSAT 3               
1 26091U 00004J   12014.06275137  .00000881  00000-0  27151-3 0  3979
2 26091 100.2193  35.9559 0031205  10.6460 349.5366 14.44400593627184
PICOSAT 4               
1 26092U 00004K   12014.23889376  .00000535  00000-0  18404-3 0  2207
2 26092 100.2148  12.2846 0035221  56.3392 304.1154 14.40901480626183
PICOSAT 5               
1 26093U 00004L   12015.10503687  .00000720  00000-0  21766-3 0  1292
2 26093 100.2107  46.6530 0031855 342.5255  17.4845 14.46084292628112
PICOSAT 6               
1 26094U 00004M   12014.44620913  .00000496  00000-0  17446-3 0  2786
2 26094 100.2167  10.0659 0035362  68.8065 291.6862 14.40173348625656
SNAP 1                  
1 26386U 00033C   12014.36173733  .00000448  00000-0  91278-4 0  5085
2 26386  98.2617  73.3090 0012503 120.9531 239.2901 14.65723116616997
PICOSAT 9               
1 26930U 01043B   12014.41062497 -.00000024  00000-0  22812-4 0  9210
2 26930  67.0006 130.5962 0001546 292.6989  67.3940 14.30166902537329
PROBA-1                 
1 26958U 01049B   12015.15317009  .00000824  00000-0  84512-4 0  5689
2 26958  97.4930  51.7335 0081493 115.6700 245.2939 14.90563674556086
BIRD 2                  
1 26959U 01049C   12015.13808334  .00002759  00000-0  14529-3 0  3636
2 26959  97.9042 207.5060 0015990  91.0498  48.0630 15.16426699564509
CUTE-1 (CO-55)          
1 27844U 03031E   12014.08273125  .00000243  00000-0  13257-3 0  2878
2 27844  98.7041  24.7152 0009398 314.3221  45.7181 14.20945355442860
CANX-1                  
1 27847U 03031H   12014.57336868  .00000168  00000-0  97365-4 0  2014
2 27847  98.6934  25.7226 0008450 289.0901  70.9369 14.21197904442999
CUBESAT XI-IV (CO-57)   
1 27848U 03031J   12013.56684013  .00000190  00000-0  10827-3 0  2350
2 27848  98.7134  23.4748 0009237 321.4914  38.5604 14.20707063442732
NAXING 1                
1 28221U 04012B   12014.54514517  .00000987  00000-0  11077-3 0   783
2 28221  97.4591   9.6362 0010864 317.8906  42.1476 14.88799974420311
ST5-A                   
1 28980U 06008A   12015.12479476  .00010694  00000-0  57694-3 0  8229
2 28980 105.6788  38.5148 2294265 179.4820 180.9359 10.74852285225392
ST5-B                   
1 28981U 06008B   12014.21396194  .00022490  17025-5  71679-3 0  9445
2 28981 105.5259  85.6799 2190023 112.9271 271.6975 11.04051845227873
ST5-C                   
1 28982U 06008C   12014.71416669  .00020196  16557-5  73645-3 0  9413
2 28982 105.5611  72.3979 2229033 135.7594 244.4830 10.94176586227072
GENESIS 1               
1 29252U 06029A   12014.12982344  .00001374  00000-0  10516-3 0  5186
2 29252  64.5084 223.0540 0055949 261.9146  97.5621 15.05371521302416
FALCONSAT-3             
1 30776U 07006E   12014.55696115  .00003236  00000-0  21797-3 0  2594
2 30776  35.4315 140.4635 0001483  85.9867 274.1018 15.06388234266915
GENESIS 2               
1 31789U 07028A   12014.23027439  .00002131  00000-0  15965-3 0  2644
2 31789  64.5103 255.3341 0041783 313.1855  46.5772 15.04976934249612
APRIZESAT 4             
1 35684U 09041D   12014.78482658  .00000676  00000-0  10286-3 0  7768
2 35684  98.0699 285.8512 0049633 354.4606   5.6100 14.76521549132634
APRIZESAT 3             
1 35686U 09041F   12014.54142494  .00000980  00000-0  12086-3 0  7819
2 35686  98.0900 295.5408 0078470 330.4702  29.2090 14.83217853133184
PROBA-2                 
1 36037U 09059B   12014.69236300 -.00000045  00000-0  00000+0 0  7198
2 36037  98.3014 206.6378 0012835 310.3033  49.7060 14.52171903116614
PRISMA (MANGO)          
1 36599U 10028B   12014.91153987  .00000335  00000-0  11617-3 0  2100
2 36599  98.2931 194.2949 0042306 248.3955 278.5353 14.41107877 83289
PRISMA (TANGO)          
1 36827U 10028F   12014.91153987  .00000332  00000-0  11522-3 0  8168
2 36827  98.2927 194.2948 0042315 248.1566 278.7541 14.41107857 75058
APRIZESAT 5             
1 37792U 11044E   12015.07652646  .00000493  00000-0  84082-4 0  4439
2 37792  98.2520  96.0303 0060599 235.0092 124.5411 14.72508969 22189
APRIZESAT 6             
1 37793U 11044F   12015.15045160  .00000486  00000-0  88886-4 0  4478
2 37793  98.2498  95.4076 0048423 233.7815 125.8902 14.69795760 22153
